{"type": "FeatureCollection", "features": [{"type": "Feature", "properties": {"norad_id": 26766, "name": "INTELSAT 10 (IS-10)", "group": "intelsat", "lat": -8.306875101030666, "lon": -44.835898386269605, "alt_km": 36096.47150030036, "timestamp": "2025-12-10T05:46:13.464963+00:00", "meta": {"OBJECT_NAME": "INTELSAT 10 (IS-10)", "OBJECT_ID": "2001-019A", "EPOCH": "2025-12-09T15:29:15.575424", "MEAN_MOTION": 0.99078983, "ECCENTRICITY": 0.0007832, "INCLINATION": 8.6227, "RA_OF_ASC_NODE": 61.1879, "ARG_OF_PERICENTER": 222.8476, "MEAN_ANOMALY": 178.976, "EPHEMERIS_TYPE": 0, "CLASSIFICATION_TYPE": "U", "NORAD_CAT_ID": 26766, "ELEMENT_SET_NO": 999, "REV_AT_EPOCH": 4370, "BSTAR": 0, "MEAN_MOTION_DOT": -2.84e-06, "MEAN_MOTION_DDOT": 0}, "tle": {"line1": "1 26766U 01019A   25343.64531916 -.00000284  00000+0  00000+0 0  9993", "line2": "2 26766   8.6227  61.1879 0007832 222.8476 178.9760  0.99078983 43702"}}, "geometry": {"type": "Point", "coordinates": [-44.835898386269605, -8.306875101030666]}}, {"type": "Feature", "properties": {"norad_id": 26900, "name": "INTELSAT 902 (IS-902)", "group": "intelsat", "lat": 3.7461144216406743, "lon": 115.40185924861812, "alt_km": 35799.59535556925, "timestamp": "2025-12-10T05:46:13.464987+00:00", "meta": {"OBJECT_NAME": "INTELSAT 902 (IS-902)", "OBJECT_ID": "2001-039A", "EPOCH": "2025-12-01T16:59:59.311968", "MEAN_MOTION": 1.00270327, "ECCENTRICITY": 0.00043097, "INCLINATION": 5.6187, "RA_OF_ASC_NODE": 74.2002, "ARG_OF_PERICENTER": 175.119, "MEAN_ANOMALY": 26.3816, "EPHEMERIS_TYPE": 0, "CLASSIFICATION_TYPE": "U", "NORAD_CAT_ID": 26900, "ELEMENT_SET_NO": 999, "REV_AT_EPOCH": 8871, "BSTAR": 0, "MEAN_MOTION_DOT": -2.63e-06, "MEAN_MOTION_DDOT": 0}, "tle": {"line1": "1 26900U 01039A   25335.70832537 -.00000263  00000+0  00000+0 0  9993", "line2": "2 26900   5.6187  74.2002 0004309 175.1190  26.3816  1.00270327 88713"}}, "geometry": {"type": "Point", "coordinates": [115.40185924861812, 3.7461144216406743]}}, {"type": "Feature", "properties": {"norad_id": 27380, "name": "INTELSAT 904 (IS-904)", "group": "intelsat", "lat": 5.7455336612940435, "lon": 134.1069752938764, "alt_km": 35790.709034673695, "timestamp": "2025-12-10T05:46:13.465004+00:00", "meta": {"OBJECT_NAME": "INTELSAT 904 (IS-904)", "OBJECT_ID": "2002-007A", "EPOCH": "2025-12-09T11:42:40.881024", "MEAN_MOTION": 1.00273083, "ECCENTRICITY": 0.0001514, "INCLINATION": 6.4469, "RA_OF_ASC_NODE": 71.4685, "ARG_OF_PERICENTER": 215.3872, "MEAN_ANOMALY": 295.774, "EPHEMERIS_TYPE": 0, "CLASSIFICATION_TYPE": "U", "NORAD_CAT_ID": 27380, "ELEMENT_SET_NO": 999, "REV_AT_EPOCH": 4986, "BSTAR": 0, "MEAN_MOTION_DOT": -2.24e-06, "MEAN_MOTION_DDOT": 0}, "tle": {"line1": "1 27380U 02007A   25343.48797316 -.00000224  00000+0  00000+0 0  9998", "line2": "2 27380   6.4469  71.4685 0001514 215.3872 295.7740  1.00273083 49866"}}, "geometry": {"type": "Point", "coordinates": [134.1069752938764, 5.7455336612940435]}}, {"type": "Feature", "properties": {"norad_id": 27426, "name": "DIRECTV 5 (TEMPO 1)", "group": "intelsat", "lat": -1.626981000382788, "lon": 55.75009579444212, "alt_km": 35798.37998897912, "timestamp": "2025-12-10T05:46:13.465017+00:00", "meta": {"OBJECT_NAME": "DIRECTV 5 (TEMPO 1)", "OBJECT_ID": "2002-023A", "EPOCH": "2025-12-09T12:28:39.654624", "MEAN_MOTION": 1.00272054, "ECCENTRICITY": 0.00039085, "INCLINATION": 4.3941, "RA_OF_ASC_NODE": 77.689, "ARG_OF_PERICENTER": 200.7432, "MEAN_ANOMALY": 237.1271, "EPHEMERIS_TYPE": 0, "CLASSIFICATION_TYPE": "U", "NORAD_CAT_ID": 27426, "ELEMENT_SET_NO": 999, "REV_AT_EPOCH": 8622, "BSTAR": 0, "MEAN_MOTION_DOT": -5.5e-07, "MEAN_MOTION_DDOT": 0}, "tle": {"line1": "1 27426U 02023A   25343.51990341 -.00000055  00000+0  00000+0 0  9996", "line2": "2 27426   4.3941  77.6890 0003908 200.7432 237.1271  1.00272054 86221"}}, "geometry": {"type": "Point", "coordinates": [55.75009579444212, -1.626981000382788]}}, {"type": "Feature", "properties": {"norad_id": 27438, "name": "INTELSAT 905 (IS-905)", "group": "intelsat", "lat": -4.306699097893922, "lon": 28.770553739269204, "alt_km": 35793.47470101167, "timestamp": "2025-12-10T05:46:13.465029+00:00", "meta": {"OBJECT_NAME": "INTELSAT 905 (IS-905)", "OBJECT_ID": "2002-027A", "EPOCH": "2025-12-09T11:59:00.274272", "MEAN_MOTION": 1.00271823, "ECCENTRICITY": 0.00028473, "INCLINATION": 6.2778, "RA_OF_ASC_NODE": 72.0923, "ARG_OF_PERICENTER": 191.5585, "MEAN_ANOMALY": 217.3829, "EPHEMERIS_TYPE": 0, "CLASSIFICATION_TYPE": "U", "NORAD_CAT_ID": 27438, "ELEMENT_SET_NO": 999, "REV_AT_EPOCH": 4946, "BSTAR": 0, "MEAN_MOTION_DOT": 9.5e-07, "MEAN_MOTION_DDOT": 0}, "tle": {"line1": "1 27438U 02027A   25343.49930873  .00000095  00000+0  00000+0 0  9997", "line2": "2 27438   6.2778  72.0923 0002847 191.5585 217.3829  1.00271823 49463"}}, "geometry": {"type": "Point", "coordinates": [28.770553739269204, -4.306699097893922]}}, {"type": "Feature", "properties": {"norad_id": 27445, "name": "GALAXY 3C (G-3C)", "group": "intelsat", "lat": -0.5252556727137587, "lon": 70.91362920003468, "alt_km": 35787.76156040776, "timestamp": "2025-12-10T05:46:13.465041+00:00", "meta": {"OBJECT_NAME": "GALAXY 3C (G-3C)", "OBJECT_ID": "2002-030A", "EPOCH": "2025-12-09T17:12:39.124800", "MEAN_MOTION": 1.00271027, "ECCENTRICITY": 0.0001125, "INCLINATION": 3.2569, "RA_OF_ASC_NODE": 80.5344, "ARG_OF_PERICENTER": 97.2007, "MEAN_ANOMALY": 64.269, "EPHEMERIS_TYPE": 0, "CLASSIFICATION_TYPE": "U", "NORAD_CAT_ID": 27445, "ELEMENT_SET_NO": 999, "REV_AT_EPOCH": 4459, "BSTAR": 0, "MEAN_MOTION_DOT": -1.5e-06, "MEAN_MOTION_DDOT": 0}, "tle": {"line1": "1 27445U 02030A   25343.71711950 -.00000150  00000+0  00000+0 0  9990", "line2": "2 27445   3.2569  80.5344 0001125  97.2007  64.2690  1.00271027 44596"}}, "geometry": {"type": "Point", "coordinates": [70.91362920003468, -0.5252556727137587]}}, {"type": "Feature", "properties": {"norad_id": 27513, "name": "INTELSAT 906 (IS-906)", "group": "intelsat", "lat": 2.2634251880341307, "lon": -130.03307570214787, "alt_km": 35764.97765460352, "timestamp": "2025-12-10T05:46:13.465053+00:00", "meta": {"OBJECT_NAME": "INTELSAT 906 (IS-906)", "OBJECT_ID": "2002-041A", "EPOCH": "2025-12-09T18:22:38.614080", "MEAN_MOTION": 1.00271033, "ECCENTRICITY": 0.0006114, "INCLINATION": 5.3212, "RA_OF_ASC_NODE": 75.2669, "ARG_OF_PERICENTER": 190.4296, "MEAN_ANOMALY": 152.8499, "EPHEMERIS_TYPE": 0, "CLASSIFICATION_TYPE": "U", "NORAD_CAT_ID": 27513, "ELEMENT_SET_NO": 999, "REV_AT_EPOCH": 8512, "BSTAR": 0, "MEAN_MOTION_DOT": 1.5e-07, "MEAN_MOTION_DDOT": 0}, "tle": {"line1": "1 27513U 02041A   25343.76572470  .00000015  00000+0  00000+0 0  9994", "line2": "2 27513   5.3212  75.2669 0006114 190.4296 152.8499  1.00271033 85122"}}, "geometry": {"type": "Point", "coordinates": [-130.03307570214787, 2.2634251880341307]}}, {"type": "Feature", "properties": {"norad_id": 27954, "name": "GALAXY 13 (HORIZONS-1)", "group": "intelsat", "lat": -0.8660079162399875, "lon": 15.79505264636413, "alt_km": 35791.70862229326, "timestamp": "2025-12-10T05:46:13.465065+00:00", "meta": {"OBJECT_NAME": "GALAXY 13 (HORIZONS-1)", "OBJECT_ID": "2003-044A", "EPOCH": "2025-12-09T14:04:00.761088", "MEAN_MOTION": 1.00270127, "ECCENTRICITY": 0.0002023, "INCLINATION": 0.9273, "RA_OF_ASC_NODE": 86.5108, "ARG_OF_PERICENTER": 162.3964, "MEAN_ANOMALY": 250.6744, "EPHEMERIS_TYPE": 0, "CLASSIFICATION_TYPE": "U", "NORAD_CAT_ID": 27954, "ELEMENT_SET_NO": 999, "REV_AT_EPOCH": 4467, "BSTAR": 0, "MEAN_MOTION_DOT": 1.35e-06, "MEAN_MOTION_DDOT": 0}, "tle": {"line1": "1 27954U 03044A   25343.58611992  .00000135  00000+0  00000+0 0  9993", "line2": "2 27954   0.9273  86.5108 0002023 162.3964 250.6744  1.00270127 44675"}}, "geometry": {"type": "Point", "coordinates": [15.79505264636413, -0.8660079162399875]}}, {"type": "Feature", "properties": {"norad_id": 28358, "name": "INTELSAT 10-02", "group": "intelsat", "lat": 0.02653654626603572, "lon": 164.78347401050246, "alt_km": 35788.84388503335, "timestamp": "2025-12-10T05:46:13.465077+00:00", "meta": {"OBJECT_NAME": "INTELSAT 10-02", "OBJECT_ID": "2004-022A", "EPOCH": "2025-12-09T13:34:07.706208", "MEAN_MOTION": 1.00269981, "ECCENTRICITY": 0.0001115, "INCLINATION": 0.0308, "RA_OF_ASC_NODE": 72.1506, "ARG_OF_PERICENTER": 211.8162, "MEAN_ANOMALY": 357.1457, "EPHEMERIS_TYPE": 0, "CLASSIFICATION_TYPE": "U", "NORAD_CAT_ID": 28358, "ELEMENT_SET_NO": 999, "REV_AT_EPOCH": 7865, "BSTAR": 0, "MEAN_MOTION_DOT": -9e-08, "MEAN_MOTION_DDOT": 0}, "tle": {"line1": "1 28358U 04022A   25343.56536697 -.00000009  00000+0  00000+0 0  9996", "line2": "2 28358   0.0308  72.1506 0001115 211.8162 357.1457  1.00269981 78653"}}, "geometry": {"type": "Point", "coordinates": [164.78347401050246, 0.02653654626603572]}}, {"type": "Feature", "properties": {"norad_id": 28626, "name": "XM-3 (RHYTHM)", "group": "intelsat", "lat": -0.100872674008634, "lon": -68.05069519158309, "alt_km": 36156.361652487096, "timestamp": "2025-12-10T05:46:13.465089+00:00", "meta": {"OBJECT_NAME": "XM-3 (RHYTHM)", "OBJECT_ID": "2005-008A", "EPOCH": "2025-12-09T14:54:38.529792", "MEAN_MOTION": 0.98953659, "ECCENTRICITY": 0.0001381, "INCLINATION": 0.1668, "RA_OF_ASC_NODE": 81.2156, "ARG_OF_PERICENTER": 264.7021, "MEAN_ANOMALY": 85.4801, "EPHEMERIS_TYPE": 0, "CLASSIFICATION_TYPE": "U", "NORAD_CAT_ID": 28626, "ELEMENT_SET_NO": 999, "REV_AT_EPOCH": 4071, "BSTAR": 0, "MEAN_MOTION_DOT": -2.36e-06, "MEAN_MOTION_DDOT": 0}, "tle": {"line1": "1 28626U 05008A   25343.62127928 -.00000236  00000+0  00000+0 0  9991", "line2": "2 28626   0.1668  81.2156 0001381 264.7021  85.4801  0.98953659 40717"}}, "geometry": {"type": "Point", "coordinates": [-68.05069519158309, -0.100872674008634]}}]}